ONEWEB-0683             
1 56719U 23068K   25088.95666669 -.00000037  00000+0 -13162-3 0  9990
2 56719  87.9126 347.6893 0001477  84.3240 275.8058 13.15547328 91018
ONEWEB-0684             
1 56720U 23068L   25088.96458916 -.00000113  00000+0 -33545-3 0  9999
2 56720  87.9103 347.7257 0002361  40.1209 320.0095 13.15546841 90841
ONEWEB-0686             
1 56721U 23068M   25088.88945246 -.00000061  00000+0 -19415-3 0  9990
2 56721  87.9061 317.3810 0001394  79.2494 280.8794 13.16593067 93954
ONEWEB-0694             
1 56722U 23068N   25088.93220346  .00000173  00000+0  41904-3 0  9994
2 56722  87.9056 317.2910 0001407  94.4655 265.6637 13.16593811 93316
ONEWEB-0696             
1 56723U 23068P   25089.22603397  .00000159  00000+0  38713-3 0  9997
2 56723  87.9127 347.6881 0001978  71.1140 289.0205 13.15549284 91698
ONEWEB-0703             
1 56724U 23068Q   25088.77920234  .00000286  00000+0  72606-3 0  9999
2 56724  87.9106 347.7881 0002877  70.8723 289.2719 13.15548178 90826
ONEWEB-0721             
1 56725U 23068R   25088.86297737  .00000035  00000+0  48264-4 0  9991
2 56725  86.6796 227.0872 0001683 104.3735 255.7585 13.22429611 99217
ONEWEB-0015             
1 61594U 24188A   25088.91668981  .00043157  00000+0  10511+0 0  9995
2 61594  87.8906 109.6900 0006608  61.8627 169.7028 13.21083671 24281
